{"type": "FeatureCollection", "features": [ {"type": "Feature", "properties": {"norad_id": 35480, "name": "IRIDIUM 33 DEB", "group": "iridium-33-debris", "lat": -81.79535046764512, "lon": -2.1970397780316944, "alt_km": 745.1327306891471, "timestamp": "2025-12-14T18:52:55.888968+00:00", "meta": {"OBJECT_NAME": "IRIDIUM 33 DEB", "OBJECT_ID": "1997-051QA", "EPOCH": "2025-12-09T19:59:43.135296", "MEAN_MOTION": 14.49744632, "ECCENTRICITY": 0.00159269, "INCLINATION": 86.357, "RA_OF_ASC_NODE": 26.1722, "ARG_OF_PERICENTER": 113.2937, "MEAN_ANOMALY": 246.9945, "EPHEMERIS_TYPE": 0, "CLASSIFICATION_TYPE": "U", "NORAD_CAT_ID": 35480, "ELEMENT_SET_NO": 999, "REV_AT_EPOCH": 86989, "BSTAR": 0.0009193458, "MEAN_MOTION_DOT": 3.565e-05, "MEAN_MOTION_DDOT": 0}, "tle": {"line1": "1 35480U 97051QA  25343.83313814  .00003565  00000+0  91935-3 0  9998", "line2": "2 35480  86.3570  26.1722 0015926 113.2937 246.9945 14.49744632869893"}}, "geometry": {"type": "Point", "coordinates": [-2.1970397780316944, -81.79535046764512]}}, {"type": "Feature", "properties": {"norad_id": 35484, "name": "IRIDIUM 33 DEB", "group": "iridium-33-debris", "lat": 81.78469835844612, "lon": 17.939690415011803, "alt_km": 549.5301273114073, "timestamp": "2025-12-14T18:52:55.888979+00:00", "meta": {"OBJECT_NAME": "IRIDIUM 33 DEB", "OBJECT_ID": "1997-051QE", "EPOCH": "2025-12-13T07:15:48.307680", "MEAN_MOTION": 14.98714194, "ECCENTRICITY": 0.00237352, "INCLINATION": 86.3615, "RA_OF_ASC_NODE": 352.4822, "ARG_OF_PERICENTER": 123.3819, "MEAN_ANOMALY": 236.9688, "EPHEMERIS_TYPE": 0, "CLASSIFICATION_TYPE": "U", "NORAD_CAT_ID": 35484, "ELEMENT_SET_NO": 999, "REV_AT_EPOCH": 62024, "BSTAR": 0.0048114888, "MEAN_MOTION_DOT": 0.00058609, "MEAN_MOTION_DDOT": 0}, "tle": {"line1": "1 35484U 97051QE  25347.30264245  .00058609  00000+0  48115-2 0  9991", "line2": "2 35484  86.3615 352.4822 0023735 123.3819 236.9688 14.98714194620242"}}, "geometry": {"type": "Point", "coordinates": [17.939690415011803, 81.78469835844612]}}, {"type": "Feature", "properties": {"norad_id": 35488, "name": "IRIDIUM 33 DEB", "group": "iridium-33-debris", "lat": 76.57366707408477, "lon": -44.44511231871166, "alt_km": 596.6315863494601, "timestamp": "2025-12-14T18:52:55.888989+00:00", "meta": {"OBJECT_NAME": "IRIDIUM 33 DEB", "OBJECT_ID": "1997-051QJ", "EPOCH": "2025-12-12T14:43:12.684864", "MEAN_MOTION": 14.83053941, "ECCENTRICITY": 0.00298615, "INCLINATION": 86.3248, "RA_OF_ASC_NODE": 300.9369, "ARG_OF_PERICENTER": 43.3071, "MEAN_ANOMALY": 317.049, "EPHEMERIS_TYPE": 0, "CLASSIFICATION_TYPE": "U", "NORAD_CAT_ID": 35488, "ELEMENT_SET_NO": 999, "REV_AT_EPOCH": 88264, "BSTAR": 0.0023232859, "MEAN_MOTION_DOT": 0.00019104, "MEAN_MOTION_DDOT": 0}, "tle": {"line1": "1 35488U 97051QJ  25346.61334126  .00019104  00000+0  23233-2 0  9995", "line2": "2 35488  86.3248 300.9369 0029861  43.3071 317.0490 14.83053941882645"}}, "geometry": {"type": "Point", "coordinates": [-44.44511231871166, 76.57366707408477]}}, {"type": "Feature", "properties": {"norad_id": 35616, "name": "IRIDIUM 33 DEB", "group": "iridium-33-debris", "lat": -46.995949720287896, "lon": 168.7502305801216, "alt_km": 627.9539974114332, "timestamp": "2025-12-14T18:52:55.888999+00:00", "meta": {"OBJECT_NAME": "IRIDIUM 33 DEB", "OBJECT_ID": "1997-051QN", "EPOCH": "2025-12-13T17:33:06.169824", "MEAN_MOTION": 14.81853952, "ECCENTRICITY": 0.00103784, "INCLINATION": 86.3548, "RA_OF_ASC_NODE": 345.3124, "ARG_OF_PERICENTER": 159.4251, "MEAN_ANOMALY": 200.7391, "EPHEMERIS_TYPE": 0, "CLASSIFICATION_TYPE": "U", "NORAD_CAT_ID": 35616, "ELEMENT_SET_NO": 999, "REV_AT_EPOCH": 87589, "BSTAR": 0.0018690544, "MEAN_MOTION_DOT": 0.00014827, "MEAN_MOTION_DDOT": 0}, "tle": {"line1": "1 35616U 97051QN  25347.73132141  .00014827  00000+0  18691-2 0  9994", "line2": "2 35616  86.3548 345.3124 0010378 159.4251 200.7391 14.81853952875890"}}, "geometry": {"type": "Point", "coordinates": [168.7502305801216, -46.995949720287896]}}, {"type": "Feature", "properties": {"norad_id": 35618, "name": "IRIDIUM 33 DEB", "group": "iridium-33-debris", "lat": 43.85766864363896, "lon": 169.08247421719753, "alt_km": 725.5754282482985, "timestamp": "2025-12-14T18:52:55.889009+00:00", "meta": {"OBJECT_NAME": "IRIDIUM 33 DEB", "OBJECT_ID": "1997-051QQ", "EPOCH": "2025-12-05T07:42:53.148672", "MEAN_MOTION": 14.52258119, "ECCENTRICITY": 0.00302089, "INCLINATION": 86.3407, "RA_OF_ASC_NODE": 356.7447, "ARG_OF_PERICENTER": 46.3254, "MEAN_ANOMALY": 314.0448, "EPHEMERIS_TYPE": 0, "CLASSIFICATION_TYPE": "U", "NORAD_CAT_ID": 35618, "ELEMENT_SET_NO": 999, "REV_AT_EPOCH": 65286, "BSTAR": 0.00091388234, "MEAN_MOTION_DOT": 3.753e-05, "MEAN_MOTION_DDOT": 0}, "tle": {"line1": "1 35618U 97051QQ  25339.32144848  .00003753  00000+0  91388-3 0  9990", "line2": "2 35618  86.3407 356.7447 0030208  46.3254 314.0448 14.52258119652865"}}, "geometry": {"type": "Point", "coordinates": [169.08247421719753, 43.85766864363896]}}, {"type": "Feature", "properties": {"norad_id": 35620, "name": "IRIDIUM 33 DEB", "group": "iridium-33-debris", "lat": 14.718839011690408, "lon": -142.45996071789216, "alt_km": 818.6371264646132, "timestamp": "2025-12-14T18:52:55.889020+00:00", "meta": {"OBJECT_NAME": "IRIDIUM 33 DEB", "OBJECT_ID": "1997-051QS", "EPOCH": "2025-12-13T21:06:15.438240", "MEAN_MOTION": 14.38113867, "ECCENTRICITY": 0.01404541, "INCLINATION": 86.3879, "RA_OF_ASC_NODE": 216.972, "ARG_OF_PERICENTER": 255.2324, "MEAN_ANOMALY": 103.3276, "EPHEMERIS_TYPE": 0, "CLASSIFICATION_TYPE": "U", "NORAD_CAT_ID": 35620, "ELEMENT_SET_NO": 999, "REV_AT_EPOCH": 59982, "BSTAR": 0.005286993, "MEAN_MOTION_DOT": 0.00018015, "MEAN_MOTION_DDOT": 0}, "tle": {"line1": "1 35620U 97051QS  25347.87934535  .00018015  00000+0  52870-2 0  9991", "line2": "2 35620  86.3879 216.9720 0140454 255.2324 103.3276 14.38113867599824"}}, "geometry": {"type": "Point", "coordinates": [-142.45996071789216, 14.718839011690408]}}, {"type": "Feature", "properties": {"norad_id": 35622, "name": "IRIDIUM 33 DEB", "group": "iridium-33-debris", "lat": -50.41601863250706, "lon": 87.20118890531063, "alt_km": 558.1979009895667, "timestamp": "2025-12-14T18:52:55.889030+00:00", "meta": {"OBJECT_NAME": "IRIDIUM 33 DEB", "OBJECT_ID": "1997-051QU", "EPOCH": "2025-12-13T12:18:27.452736", "MEAN_MOTION": 15.04855982, "ECCENTRICITY": 0.00058138, "INCLINATION": 86.204, "RA_OF_ASC_NODE": 263.2227, "ARG_OF_PERICENTER": 326.3099, "MEAN_ANOMALY": 206.7001, "EPHEMERIS_TYPE": 0, "CLASSIFICATION_TYPE": "U", "NORAD_CAT_ID": 35622, "ELEMENT_SET_NO": 999, "REV_AT_EPOCH": 87371, "BSTAR": 0.007661382, "MEAN_MOTION_DOT": 0.00109841, "MEAN_MOTION_DDOT": 0}, "tle": {"line1": "1 35622U 97051QU  25347.51281774  .00109841  00000+0  76614-2 0  9994", "line2": "2 35622  86.2040 263.2227 0005813 326.3099 206.7001 15.04855982873712"}}, "geometry": {"type": "Point", "coordinates": [87.20118890531063, -50.41601863250706]}}, {"type": "Feature", "properties": {"norad_id": 35628, "name": "IRIDIUM 33 DEB", "group": "iridium-33-debris", "lat": 34.643497071994666, "lon": -174.35962524030697, "alt_km": 673.639534212949, "timestamp": "2025-12-14T18:52:55.889041+00:00", "meta": {"OBJECT_NAME": "IRIDIUM 33 DEB", "OBJECT_ID": "1997-051RA", "EPOCH": "2025-12-13T19:18:48.561408", "MEAN_MOTION": 14.67604958, "ECCENTRICITY": 0.00102895, "INCLINATION": 86.3579, "RA_OF_ASC_NODE": 8.6006, "ARG_OF_PERICENTER": 338.9594, "MEAN_ANOMALY": 21.1195, "EPHEMERIS_TYPE": 0, "CLASSIFICATION_TYPE": "U", "NORAD_CAT_ID": 35628, "ELEMENT_SET_NO": 999, "REV_AT_EPOCH": 86462, "BSTAR": 0.0015459634, "MEAN_MOTION_DOT": 8.811e-05, "MEAN_MOTION_DDOT": 0}, "tle": {"line1": "1 35628U 97051RA  25347.80472872  .00008811  00000+0  15460-2 0  9990", "line2": "2 35628  86.3579   8.6006 0010289 338.9594  21.1195 14.67604958864620"}}, "geometry": {"type": "Point", "coordinates": [-174.35962524030697, 34.643497071994666]}}, {"type": "Feature", "properties": {"norad_id": 35631, "name": "IRIDIUM 33 DEB", "group": "iridium-33-debris", "lat": -71.78582683041174, "lon": -148.77362389710322, "alt_km": 752.2946693277272, "timestamp": "2025-12-14T18:52:55.889052+00:00", "meta": {"OBJECT_NAME": "IRIDIUM 33 DEB", "OBJECT_ID": "1997-051RD", "EPOCH": "2025-12-13T20:57:48.149280", "MEAN_MOTION": 14.47315231, "ECCENTRICITY": 0.00191087, "INCLINATION": 86.3671, "RA_OF_ASC_NODE": 20.4872, "ARG_OF_PERICENTER": 114.6031, "MEAN_ANOMALY": 61.8796, "EPHEMERIS_TYPE": 0, "CLASSIFICATION_TYPE": "U", "NORAD_CAT_ID": 35631, "ELEMENT_SET_NO": 999, "REV_AT_EPOCH": 87213, "BSTAR": 0.00047277124, "MEAN_MOTION_DOT": 1.754e-05, "MEAN_MOTION_DDOT": 0}, "tle": {"line1": "1 35631U 97051RD  25347.87347395  .00001754  00000+0  47277-3 0  9993", "line2": "2 35631  86.3671  20.4872 0019108 114.6031  61.8796 14.47315231872138"}}, "geometry": {"type": "Point", "coordinates": [-148.77362389710322, -71.78582683041174]}}, {"type": "Feature", "properties": {"norad_id": 35680, "name": "IRIDIUM 33 DEB", "group": "iridium-33-debris", "lat": 30.194708123811164, "lon": 22.889389862118197, "alt_km": 870.7646637265962, "timestamp": "2025-12-14T18:52:55.889062+00:00", "meta": {"OBJECT_NAME": "IRIDIUM 33 DEB", "OBJECT_ID": "1997-051RJ", "EPOCH": "2025-12-13T09:13:25.254912", "MEAN_MOTION": 14.20938352, "ECCENTRICITY": 0.01504857, "INCLINATION": 86.103, "RA_OF_ASC_NODE": 21.2368, "ARG_OF_PERICENTER": 276.4463, "MEAN_ANOMALY": 142.7573, "EPHEMERIS_TYPE": 0, "CLASSIFICATION_TYPE": "U", "NORAD_CAT_ID": 35680, "ELEMENT_SET_NO": 999, "REV_AT_EPOCH": 60710, "BSTAR": 0.0061528167, "MEAN_MOTION_DOT": 0.00014968, "MEAN_MOTION_DDOT": 0}, "tle": {"line1": "1 35680U 97051RJ  25347.38432008  .00014968  00000+0  61528-2 0  9994", "line2": "2 35680  86.1030  21.2368 0150485 276.4463 142.7573 14.20938352607109"}}, "geometry": {"type": "Point", "coordinates": [22.889389862118197, 30.194708123811164]}}]}